EUTELSAT 7A             
1 28187U 04008A   25352.52675464  .00000123  00000+0  00000+0 0  9998
2 28187   5.3719  74.1867 0000859 183.6326 240.0025  1.00269880 79549
EUTELSAT 174A           
1 28924U 05052A   25352.55217925  .00000031  00000+0  00000+0 0  9992
2 28924   3.7612  78.7856 0005806 191.1932 190.2463  1.00269456 50522
EUTELSAT HOTBIRD 13B    
1 29270U 06032A   25352.56054132  .00000180  00000+0  00000+0 0  9991
2 29270   1.1950  84.3254 0003501 178.6014  59.3704  1.00272945 45490
EUTELSAT HOTBIRD 13C    
1 33459U 08065A   25352.54398788 -.00000260  00000+0  00000+0 0  9999
2 33459   2.4857  81.3568 0003453 180.3073 331.2686  1.00272504 45537
EUTELSAT 36B            
1 36101U 09065A   25352.56400801  .00000137  00000+0  00000+0 0  9991
2 36101   0.0477  30.4960 0005624 236.0654  74.4022  1.00269652 58896
EUTELSAT KA-SAT 9A      
1 37258U 10069A   25352.34177875  .00000087  00000+0  00000+0 0  9993
2 37258   0.0488 339.2268 0002143 201.4048  38.6272  1.00270255 42195
EUTELSAT 7 WEST A       
1 37816U 11051A   25352.55239461 -.00000035  00000+0  00000+0 0  9992
2 37816   0.0615 355.1459 0005219 233.8419  49.9822  1.00272084 52069
EUTELSAT 16A            
1 37836U 11057A   25352.34316543  .00000130  00000+0  00000+0 0  9999
2 37836   0.0622 332.9204 0006179 297.9411 315.9211  1.00274818  5512
